{
  "type": "FeatureCollection",
  "features": [
    {
      "type": "Feature",
      "properties": {
        "norad_id": 66310,
        "name": "LVM3 R/B",
        "group": "last-30-days",
        "lat": 21.294824671631034,
        "lon": -128.15922638287512,
        "alt_km": 10240.218136254374,
        "timestamp": "2025-12-02T19:35:49.341126+00:00",
        "meta_object_name": "LVM3 R/B",
        "meta_object_id": "2025-249A",
        "meta_epoch": "2025-12-01T23:22:58.655136",
        "meta_mean_motion": 3.14324392,
        "meta_eccentricity": 0.6668498,
        "meta_inclination": 21.3496,
        "meta_ra_of_asc_node": 143.6271,
        "meta_arg_of_pericenter": 208.7099,
        "meta_mean_anomaly": 87.5029,
        "meta_ephemeris_type": 0,
        "meta_classification_type": "U",
        "meta_norad_cat_id": 66310,
        "meta_element_set_no": 999,
        "meta_rev_at_epoch": 94,
        "meta_bstar": 0.001238,
        "meta_mean_motion_dot": 0.00046343,
        "meta_mean_motion_ddot": -6.6665e-07,
        "tle_line1": "1 66310U 25249A   25335.97428999  .00046343 -66665-6  12380-2 0  9995",
        "tle_line2": "2 66310  21.3496 143.6271 6668498 208.7099  87.5029  3.14324392   944"
      },
      "geometry": {
        "type": "Point",
        "coordinates": [
          -128.15922638287512,
          21.294824671631034
        ]
      }
    },
    {
      "type": "Feature",
      "properties": {
        "norad_id": 66311,
        "name": "CMS-03 (GSAT-7R)",
        "group": "last-30-days",
        "lat": -0.008856942156709202,
        "lon": 99.30996858003371,
        "alt_km": 35770.38647034683,
        "timestamp": "2025-12-02T19:35:49.341176+00:00",
        "meta_object_name": "CMS-03 (GSAT-7R)",
        "meta_object_id": "2025-249B",
        "meta_epoch": "2025-12-02T07:22:54.326208",
        "meta_mean_motion": 1.00268468,
        "meta_eccentricity": 0.0003994,
        "meta_inclination": 0.1671,
        "meta_ra_of_asc_node": 272.066,
        "meta_arg_of_pericenter": 195.6706,
        "meta_mean_anomaly": 167.883,
        "meta_ephemeris_type": 0,
        "meta_classification_type": "U",
        "meta_norad_cat_id": 66311,
        "meta_element_set_no": 999,
        "meta_rev_at_epoch": 37,
        "meta_bstar": 0,
        "meta_mean_motion_dot": -2.36e-06,
        "meta_mean_motion_ddot": 0,
        "tle_line1": "1 66311U 25249B   25336.30757322 -.00000236  00000+0  00000+0 0  9997",
        "tle_line2": "2 66311   0.1671 272.0660 0003994 195.6706 167.8830  1.00268468   374"
      },
      "geometry": {
        "type": "Point",
        "coordinates": [
          99.30996858003371,
          -0.008856942156709202
        ]
      }
    },
    {
      "type": "Feature",
      "properties": {
        "norad_id": 66313,
        "name": "YAOGAN-46",
        "group": "last-30-days",
        "lat": 17.692293846655605,
        "lon": 159.71836524540655,
        "alt_km": 7418.270597223204,
        "timestamp": "2025-12-02T19:35:49.341198+00:00",
        "meta_object_name": "YAOGAN-46",
        "meta_object_id": "2025-250A",
        "meta_epoch": "2025-11-23T01:44:02.775840",
        "meta_mean_motion": 5.35115916,
        "meta_eccentricity": 0.00492374,
        "meta_inclination": 20.0335,
        "meta_ra_of_asc_node": 104.8243,
        "meta_arg_of_pericenter": 135.6954,
        "meta_mean_anomaly": 224.7061,
        "meta_ephemeris_type": 0,
        "meta_classification_type": "U",
        "meta_norad_cat_id": 66313,
        "meta_element_set_no": 999,
        "meta_rev_at_epoch": 114,
        "meta_bstar": 0,
        "meta_mean_motion_dot": -7e-08,
        "meta_mean_motion_ddot": 0,
        "tle_line1": "1 66313U 25250A   25327.07225435 -.00000007  00000+0  00000+0 0  9996",
        "tle_line2": "2 66313  20.0335 104.8243 0049237 135.6954 224.7061  5.35115916  1148"
      },
      "geometry": {
        "type": "Point",
        "coordinates": [
          159.71836524540655,
          17.692293846655605
        ]
      }
    },
    {
      "type": "Feature",
      "properties": {
        "norad_id": 66315,
        "name": "SENTINEL-1D",
        "group": "last-30-days",
        "lat": -0.3628798447411912,
        "lon": 161.9259008724351,
        "alt_km": 694.8494706117744,
        "timestamp": "2025-12-02T19:35:49.341213+00:00",
        "meta_object_name": "SENTINEL-1D",
        "meta_object_id": "2025-251A",
        "meta_epoch": "2025-12-02T10:32:58.403040",
        "meta_mean_motion": 14.5991009,
        "meta_eccentricity": 0.0002584,
        "meta_inclination": 98.1924,
        "meta_ra_of_asc_node": 341.6058,
        "meta_arg_of_pericenter": 155.6832,
        "meta_mean_anomaly": 204.4491,
        "meta_ephemeris_type": 0,
        "meta_classification_type": "U",
        "meta_norad_cat_id": 66315,
        "meta_element_set_no": 999,
        "meta_rev_at_epoch": 403,
        "meta_bstar": 7.4229e-05,
        "meta_mean_motion_dot": 3.09e-06,
        "meta_mean_motion_ddot": 0,
        "tle_line1": "1 66315U 25251A   25336.43956485  .00000309  00000+0  74229-4 0  9998",
        "tle_line2": "2 66315  98.1924 341.6058 0002584 155.6832 204.4491 14.59910090  4031"
      },
      "geometry": {
        "type": "Point",
        "coordinates": [
          161.9259008724351,
          -0.3628798447411912
        ]
      }
    },
    {
      "type": "Feature",
      "properties": {
        "norad_id": 66316,
        "name": "QPS-SAR-14 (YACHIHOKO-I)",
        "group": "last-30-days",
        "lat": 41.83629002658872,
        "lon": -134.39246475831823,
        "alt_km": 563.1294382280139,
        "timestamp": "2025-12-02T19:35:49.341225+00:00",
        "meta_object_name": "QPS-SAR-14 (YACHIHOKO-I)",
        "meta_object_id": "2025-252A",
        "meta_epoch": "2025-12-01T22:22:08.570496",
        "meta_mean_motion": 14.97516948,
        "meta_eccentricity": 0.00069195,
        "meta_inclination": 42.003,
        "meta_ra_of_asc_node": 134.6343,
        "meta_arg_of_pericenter": 75.2493,
        "meta_mean_anomaly": 284.9098,
        "meta_ephemeris_type": 0,
        "meta_classification_type": "U",
        "meta_norad_cat_id": 66316,
        "meta_element_set_no": 999,
        "meta_rev_at_epoch": 391,
        "meta_bstar": 0.00059360417,
        "meta_mean_motion_dot": 6.864e-05,
        "meta_mean_motion_ddot": 0,
        "tle_line1": "1 66316U 25252A   25335.93204364  .00006864  00000+0  59360-3 0  9996",
        "tle_line2": "2 66316  42.0030 134.6343 0006919  75.2493 284.9098 14.97516948  3919"
      },
      "geometry": {
        "type": "Point",
        "coordinates": [
          -134.39246475831823,
          41.83629002658872
        ]
      }
    },
    {
      "type": "Feature",
      "properties": {
        "norad_id": 66317,
        "name": "ELECTRON R/B",
        "group": "last-30-days",
        "lat": 3.1355756125309933,
        "lon": 114.85379793982015,
        "alt_km": 232.8698966003467,
        "timestamp": "2025-12-02T19:35:49.341240+00:00",
        "meta_object_name": "ELECTRON R/B",
        "meta_object_id": "2025-252B",
        "meta_epoch": "2025-11-29T21:07:58.211904",
        "meta_mean_motion": 15.94243293,
        "meta_eccentricity": 0.01246685,
        "meta_inclination": 41.9889,
        "meta_ra_of_asc_node": 130.1303,
        "meta_arg_of_pericenter": 46.1701,
        "meta_mean_anomaly": 314.9386,
        "meta_ephemeris_type": 0,
        "meta_classification_type": "U",
        "meta_norad_cat_id": 66317,
        "meta_element_set_no": 999,
        "meta_rev_at_epoch": 378,
        "meta_bstar": 0.0019142518,
        "meta_mean_motion_dot": 0.01669799,
        "meta_mean_motion_ddot": 7.910989e-06,
        "tle_line1": "1 66317U 25252B   25333.88053486  .01669799  79110-5  19143-2 0  9997",
        "tle_line2": "2 66317  41.9889 130.1303 0124668  46.1701 314.9386 15.94243293  3785"
      },
      "geometry": {
        "type": "Point",
        "coordinates": [
          114.85379793982015,
          3.1355756125309933
        ]
      }
    },
    {
      "type": "Feature",
      "properties": {
        "norad_id": 66319,
        "name": "STARLINK-35442",
        "group": "last-30-days",
        "lat": -10.842065302589356,
        "lon": -125.07913138044542,
        "alt_km": 445.32879270779904,
        "timestamp": "2025-12-02T19:35:49.341252+00:00",
        "meta_object_name": "STARLINK-35442",
        "meta_object_id": "2025-253A",
        "meta_epoch": "2025-12-02T12:00:05.998752",
        "meta_mean_motion": 15.40646446,
        "meta_eccentricity": 0.0001205,
        "meta_inclination": 43.0009,
        "meta_ra_of_asc_node": 44.8849,
        "meta_arg_of_pericenter": 294.5991,
        "meta_mean_anomaly": 303.9764,
        "meta_ephemeris_type": 0,
        "meta_classification_type": "U",
        "meta_norad_cat_id": 66319,
        "meta_element_set_no": 999,
        "meta_rev_at_epoch": 538,
        "meta_bstar": 0.0011276,
        "meta_mean_motion_dot": 0.00047005,
        "meta_mean_motion_ddot": 0,
        "tle_line1": "1 66319U 25253A   25336.50006943  .00047005  00000+0  11276-2 0  9992",
        "tle_line2": "2 66319  43.0009  44.8849 0001205 294.5991 303.9764 15.40646446  5385"
      },
      "geometry": {
        "type": "Point",
        "coordinates": [
          -125.07913138044542,
          -10.842065302589356
        ]
      }
    }
  ]
}